[{"OBJECT_NAME":"STARLINK-32152","OBJECT_ID":"2024-131W","EPOCH":"2026-03-09T09:00:13.373856","MEAN_MOTION":15.30192193,"ECCENTRICITY":0.00011505,"INCLINATION":53.1607,"RA_OF_ASC_NODE":53.6603,"ARG_OF_PERICENTER":77.1887,"MEAN_ANOMALY":282.9242,"EPHEMERIS_TYPE":0,"CLASSIFICATION_TYPE":"U","NORAD_CAT_ID":60275,"ELEMENT_SET_NO":999,"REV_AT_EPOCH":9157,"BSTAR":8.982609e-6,"MEAN_MOTION_DOT":-9.3e-7,"MEAN_MOTION_DDOT":0},{"OBJECT_NAME":"HAWK-11B","OBJECT_ID":"2024-247C","EPOCH":"2026-03-09T10:44:06.809856","MEAN_MOTION":15.2884707,"ECCENTRICITY":0.00046902,"INCLINATION":45.0161,"RA_OF_ASC_NODE":115.761,"ARG_OF_PERICENTER":333.0326,"MEAN_ANOMALY":27.0314,"EPHEMERIS_TYPE":0,"CLASSIFICATION_TYPE":"U","NORAD_CAT_ID":62379,"ELEMENT_SET_NO":999,"REV_AT_EPOCH":6773,"BSTAR":0.00032841927,"MEAN_MOTION_DOT":9.093e-5,"MEAN_MOTION_DDOT":0}]
